OBJECT_NAME,OBJECT_ID,EPOCH,MEAN_MOTION,ECCENTRICITY,INCLINATION,RA_OF_ASC_NODE,ARG_OF_PERICENTER,MEAN_ANOMALY,EPHEMERIS_TYPE,CLASSIFICATION_TYPE,NORAD_CAT_ID,ELEMENT_SET_NO,REV_AT_EPOCH,BSTAR,MEAN_MOTION_DOT,MEAN_MOTION_DDOT
ONEWEB-0230,2021-045C,2026-06-11T16:31:36.604704,13.15548128,.0002053,87.9001,260.2993,96.4211,263.7154,0,U,48769,999,24394,-.30523E-3,-.102E-5,0
ONEWEB-0237,2021-045D,2026-06-11T16:15:36.876096,13.15546766,.0001708,87.9003,260.3033,100.7862,259.3460,0,U,48770,999,24366,-.1787E-3,-.54E-6,0
ONEWEB-0235,2021-045E,2026-06-11T15:39:08.116128,13.15548322,.0001547,87.9010,260.2934,105.6931,254.4370,0,U,48771,999,24365,.25189E-3,.108E-5,0
ONEWEB-0242,2021-045F,2026-06-11T15:29:58.860096,13.15552361,.0001796,87.9011,260.2914,97.0395,263.0940,0,U,48772,999,24369,-.23931E-2,-.888E-5,0
ONEWEB-0241,2021-045G,2026-06-11T13:22:14.267712,13.15549003,.000174,87.8997,260.3280,112.7247,247.4067,0,U,48773,999,24359,.33744E-3,.14E-5,0
ONEWEB-0243,2021-045H,2026-06-11T15:57:23.020128,13.15548390,.0001508,87.9000,260.3187,90.2139,269.9164,0,U,48774,999,24363,-.18692E-3,-.58E-6,0
ONEWEB-0222,2021-045J,2026-06-11T13:43:54.146208,13.15548754,.0001771,87.9008,260.3044,105.6510,254.4816,0,U,48775,999,24366,.34516E-3,.143E-5,0
ONEWEB-0244,2021-045K,2026-06-11T16:11:04.477632,13.15548277,.0001834,87.9016,260.2783,100.7265,259.4071,0,U,48776,999,24424,-.27994E-3,-.93E-6,0
ONEWEB-0247,2021-045L,2026-06-11T16:06:29.849184,13.15546876,.0001126,87.9001,260.3117,95.5000,264.6259,0,U,48777,999,24368,-.3983E-3,-.137E-5,0
ONEWEB-0245,2021-045M,2026-06-11T15:59:39.202080,13.15547479,.0001883,87.9009,260.2915,105.7489,254.3849,0,U,48778,999,24365,-.16131E-3,-.48E-6,0
ONEWEB-0229,2021-045N,2026-06-11T15:52:49.179648,13.15548452,.0001846,87.9010,260.2904,98.0397,262.0943,0,U,48779,999,24368,.11097E-3,.55E-6,0
ONEWEB-0228,2021-045P,2026-06-11T16:40:54.498144,13.15547657,.0001897,87.9013,260.2761,101.7988,258.3356,0,U,48780,999,24360,-.91191E-3,-.33E-5,0
ONEWEB-0232,2021-045Q,2026-06-11T16:04:12.893088,13.15550078,.0001967,87.9014,260.2822,102.8930,257.2420,0,U,48781,999,24392,-.17567E-3,-.53E-6,0
ONEWEB-0231,2021-045R,2026-06-11T15:32:16.742400,13.15548563,.0001743,87.9006,260.3001,104.7450,255.3873,0,U,48782,999,24361,.31713E-3,.132E-5,0
ONEWEB-0234,2021-045S,2026-06-11T16:26:50.777088,13.15548767,.000263,87.9008,260.2742,114.2169,245.9236,0,U,48783,999,24375,-.3646E-3,-.124E-5,0
ONEWEB-0238,2021-045T,2026-06-11T16:27:13.364640,13.15548553,.0002287,87.9014,260.2686,109.0854,251.0524,0,U,48784,999,24365,-.11126E-2,-.406E-5,0
ONEWEB-0240,2021-045U,2026-06-11T13:18:47.481408,13.15547738,.0001789,87.9012,260.3046,109.8163,250.3160,0,U,48785,999,24366,.24907E-3,.107E-5,0
ONEWEB-0246,2021-045V,2026-06-11T13:10:49.336896,13.15549056,.0001868,87.9011,260.3103,98.3438,261.7904,0,U,48786,999,24353,.12359E-3,.59E-6,0
ONEWEB-0210,2021-045W,2026-06-11T16:13:20.303616,13.15550352,.0001201,87.9015,260.2820,81.4316,278.6950,0,U,48787,999,24359,-.46374E-3,-.162E-5,0
ONEWEB-0214,2021-045X,2026-06-11T16:25:53.978592,13.15548753,.0001897,87.9011,260.2770,89.8372,270.2975,0,U,48788,999,24356,-.37143E-3,-.127E-5,0
ONEWEB-0221,2021-045Y,2026-06-11T16:36:10.302624,13.15547850,.0001782,87.9010,260.2844,103.5105,256.6224,0,U,48789,999,24365,-.3347E-3,-.113E-5,0
ONEWEB-0213,2021-045Z,2026-06-11T16:20:10.617216,13.15546865,.0001659,87.9011,260.2900,100.6167,259.5151,0,U,48790,999,24371,-.42275E-3,-.146E-5,0
ONEWEB-0212,2021-045AA,2026-06-11T15:47:06.902592,13.15550585,.0001997,87.9010,260.2887,101.6417,258.4938,0,U,48791,999,24370,.37301E-3,.153E-5,0
ONEWEB-0227,2021-045AB,2026-06-11T15:45:58.821120,13.15548769,.0001877,87.9008,260.2897,102.7886,257.3454,0,U,48792,999,24365,.79919E-4,.43E-6,0
ONEWEB-0226,2021-045AC,2026-06-11T15:36:50.321952,13.15550154,.0001685,87.9006,260.2959,97.7944,262.3377,0,U,48793,999,24362,.24816E-3,.106E-5,0
ONEWEB-0224,2021-045AD,2026-06-11T16:33:51.971040,13.15546656,.0002183,87.9000,260.3223,125.0798,235.0537,0,U,48794,999,24355,-.33564E-3,-.114E-5,0
ONEWEB-0233,2021-045AE,2026-06-11T16:40:32.098080,13.15547975,.0001715,87.8999,260.3289,106.9969,253.1349,0,U,48795,999,24357,-.31379E-3,-.105E-5,0
ONEWEB-0190,2021-045AF,2026-06-11T16:22:27.339168,13.15546929,.0001286,87.9003,260.2932,105.5358,254.5914,0,U,48796,999,24364,-.35574E-3,-.121E-5,0
ONEWEB-0236,2021-045AG,2026-06-11T13:08:32.324640,13.15547978,.0002102,87.8998,260.3300,102.6557,257.4809,0,U,48797,999,24351,.58485E-4,.35E-6,0
ONEWEB-0248,2021-045AH,2026-06-11T13:26:46.622112,13.15547465,.000164,87.9009,260.3104,113.3257,246.8046,0,U,48798,999,24367,.22217E-3,.96E-6,0
