ONEWEB-0230             
1 48769U 21045C   26162.68861811 -.00000102  00000+0 -30523-3 0  9992
2 48769  87.9001 260.2993 0002053  96.4211 263.7154 13.15548128243943
ONEWEB-0237             
1 48770U 21045D   26162.67751014 -.00000054  00000+0 -17870-3 0  9992
2 48770  87.9003 260.3033 0001708 100.7862 259.3460 13.15546766243666
ONEWEB-0235             
1 48771U 21045E   26162.65217727  .00000108  00000+0  25189-3 0  9999
2 48771  87.9010 260.2934 0001547 105.6931 254.4370 13.15548322243651
ONEWEB-0242             
1 48772U 21045F   26162.64582014 -.00000888  00000+0 -23931-2 0  9992
2 48772  87.9011 260.2914 0001796  97.0395 263.0940 13.15552361243696
ONEWEB-0241             
1 48773U 21045G   26162.55710958  .00000140  00000+0  33744-3 0  9996
2 48773  87.8997 260.3280 0001740 112.7247 247.4067 13.15549003243590
ONEWEB-0243             
1 48774U 21045H   26162.66484977 -.00000058  00000+0 -18692-3 0  9993
2 48774  87.9000 260.3187 0001508  90.2139 269.9164 13.15548390243635
ONEWEB-0222             
1 48775U 21045J   26162.57215447  .00000143  00000+0  34516-3 0  9994
2 48775  87.9008 260.3044 0001771 105.6510 254.4816 13.15548754243662
ONEWEB-0244             
1 48776U 21045K   26162.67435738 -.00000093  00000+0 -27994-3 0  9991
2 48776  87.9016 260.2783 0001834 100.7265 259.4071 13.15548277244247
ONEWEB-0247             
1 48777U 21045L   26162.67117881 -.00000137  00000+0 -39830-3 0  9999
2 48777  87.9001 260.3117 0001126  95.5000 264.6259 13.15546876243682
ONEWEB-0245             
1 48778U 21045M   26162.66642595 -.00000048  00000+0 -16131-3 0  9994
2 48778  87.9009 260.2915 0001883 105.7489 254.3849 13.15547479243659
ONEWEB-0229             
1 48779U 21045N   26162.66168032  .00000055  00000+0  11097-3 0  9996
2 48779  87.9010 260.2904 0001846  98.0397 262.0943 13.15548452243687
ONEWEB-0228             
1 48780U 21045P   26162.69507521 -.00000330  00000+0 -91191-3 0  9992
2 48780  87.9013 260.2761 0001897 101.7988 258.3356 13.15547657243601
ONEWEB-0232             
1 48781U 21045Q   26162.66959367 -.00000053  00000+0 -17567-3 0  9996
2 48781  87.9014 260.2822 0001967 102.8930 257.2420 13.15550078243924
ONEWEB-0231             
1 48782U 21045R   26162.64741600  .00000132  00000+0  31713-3 0  9999
2 48782  87.9006 260.3001 0001743 104.7450 255.3873 13.15548563243619
ONEWEB-0234             
1 48783U 21045S   26162.68530992 -.00000124  00000+0 -36460-3 0  9991
2 48783  87.9008 260.2742 0002630 114.2169 245.9236 13.15548767243751
ONEWEB-0238             
1 48784U 21045T   26162.68557135 -.00000406  00000+0 -11126-2 0  9994
2 48784  87.9014 260.2686 0002287 109.0854 251.0524 13.15548553243657
ONEWEB-0240             
1 48785U 21045U   26162.55471622  .00000107  00000+0  24907-3 0  9995
2 48785  87.9012 260.3046 0001789 109.8163 250.3160 13.15547738243667
ONEWEB-0246             
1 48786U 21045V   26162.54918214  .00000059  00000+0  12359-3 0  9992
2 48786  87.9011 260.3103 0001868  98.3438 261.7904 13.15549056243539
ONEWEB-0210             
1 48787U 21045W   26162.67592944 -.00000162  00000+0 -46374-3 0  9996
2 48787  87.9015 260.2820 0001201  81.4316 278.6950 13.15550352243593
ONEWEB-0214             
1 48788U 21045X   26162.68465253 -.00000127  00000+0 -37143-3 0  9995
2 48788  87.9011 260.2770 0001897  89.8372 270.2975 13.15548753243563
ONEWEB-0221             
1 48789U 21045Y   26162.69178591 -.00000113  00000+0 -33470-3 0  9997
2 48789  87.9010 260.2844 0001782 103.5105 256.6224 13.15547850243658
ONEWEB-0213             
1 48790U 21045Z   26162.68067844 -.00000146  00000+0 -42275-3 0  9995
2 48790  87.9011 260.2900 0001659 100.6167 259.5151 13.15546865243716
ONEWEB-0212             
1 48791U 21045AA  26162.65771878  .00000153  00000+0  37301-3 0  9992
2 48791  87.9010 260.2887 0001997 101.6417 258.4938 13.15550585243708
ONEWEB-0227             
1 48792U 21045AB  26162.65693080  .00000043  00000+0  79919-4 0  9991
2 48792  87.9008 260.2897 0001877 102.7886 257.3454 13.15548769243652
ONEWEB-0226             
1 48793U 21045AC  26162.65058243  .00000106  00000+0  24816-3 0  9993
2 48793  87.9006 260.2959 0001685  97.7944 262.3377 13.15550154243623
ONEWEB-0224             
1 48794U 21045AD  26162.69018485 -.00000114  00000+0 -33564-3 0  9993
2 48794  87.9000 260.3223 0002183 125.0798 235.0537 13.15546656243558
ONEWEB-0233             
1 48795U 21045AE  26162.69481595 -.00000105  00000+0 -31379-3 0  9992
2 48795  87.8999 260.3289 0001715 106.9969 253.1349 13.15547975243574
ONEWEB-0190             
1 48796U 21045AF  26162.68226087 -.00000121  00000+0 -35574-3 0  9994
2 48796  87.9003 260.2932 0001286 105.5358 254.5914 13.15546929243645
ONEWEB-0236             
1 48797U 21045AG  26162.54759635  .00000035  00000+0  58485-4 0  9999
2 48797  87.8998 260.3300 0002102 102.6557 257.4809 13.15547978243511
ONEWEB-0248             
1 48798U 21045AH  26162.56026183  .00000096  00000+0  22217-3 0  9997
2 48798  87.9009 260.3104 0001640 113.3257 246.8046 13.15547465243673
